{"type": "FeatureCollection", "features": [ {"type": "Feature", "properties": {"norad_id": 34014, "name": "COSMOS 2251 DEB", "group": "cosmos-2251-debris", "lat": 71.61499773231489, "lon": -44.554013959897134, "alt_km": 625.8903533014218, "timestamp": "2025-12-25T11:37:44.832896+00:00", "meta": {"OBJECT_NAME": "COSMOS 2251 DEB", "OBJECT_ID": "1993-036GZ", "EPOCH": "2025-12-25T01:46:45.179328", "MEAN_MOTION": 14.73279869, "ECCENTRICITY": 0.0037591, "INCLINATION": 74.0164, "RA_OF_ASC_NODE": 256.6608, "ARG_OF_PERICENTER": 32.8957, "MEAN_ANOMALY": 31.7606, "EPHEMERIS_TYPE": 0, "CLASSIFICATION_TYPE": "U", "NORAD_CAT_ID": 34014, "ELEMENT_SET_NO": 999, "REV_AT_EPOCH": 89485, "BSTAR": 0.00096895, "MEAN_MOTION_DOT": 6.307e-05, "MEAN_MOTION_DDOT": 0}, "tle": {"line1": "1 34014U 93036GZ  25359.07413402  .00006307  00000+0  96895-3 0  9993", "line2": "2 34014  74.0164 256.6608 0037591  32.8957  31.7606 14.73279869894851"}}, "geometry": {"type": "Point", "coordinates": [-44.554013959897134, 71.61499773231489]}}, {"type": "Feature", "properties": {"norad_id": 34015, "name": "COSMOS 2251 DEB", "group": "cosmos-2251-debris", "lat": -32.14646503968436, "lon": 124.70398321099131, "alt_km": 698.8215518690004, "timestamp": "2025-12-25T11:37:44.832906+00:00", "meta": {"OBJECT_NAME": "COSMOS 2251 DEB", "OBJECT_ID": "1993-036HA", "EPOCH": "2025-12-24T20:01:55.667712", "MEAN_MOTION": 14.60394498, "ECCENTRICITY": 0.00209532, "INCLINATION": 74.0243, "RA_OF_ASC_NODE": 136.3167, "ARG_OF_PERICENTER": 233.1118, "MEAN_ANOMALY": 277.8758, "EPHEMERIS_TYPE": 0, "CLASSIFICATION_TYPE": "U", "NORAD_CAT_ID": 34015, "ELEMENT_SET_NO": 999, "REV_AT_EPOCH": 88707, "BSTAR": 0.0012459859, "MEAN_MOTION_DOT": 6.025e-05, "MEAN_MOTION_DDOT": 0}, "tle": {"line1": "1 34015U 93036HA  25358.83467208  .00006025  00000+0  12460-2 0  9992", "line2": "2 34015  74.0243 136.3167 0020953 233.1118 277.8758 14.60394498887072"}}, "geometry": {"type": "Point", "coordinates": [124.70398321099131, -32.14646503968436]}}, {"type": "Feature", "properties": {"norad_id": 34018, "name": "COSMOS 2251 DEB", "group": "cosmos-2251-debris", "lat": 67.79400194739172, "lon": 115.61363197956695, "alt_km": 783.604146698055, "timestamp": "2025-12-25T11:37:44.832917+00:00", "meta": {"OBJECT_NAME": "COSMOS 2251 DEB", "OBJECT_ID": "1993-036HD", "EPOCH": "2025-12-25T04:27:46.766880", "MEAN_MOTION": 13.81085316, "ECCENTRICITY": 0.026312, "INCLINATION": 73.878, "RA_OF_ASC_NODE": 71.0047, "ARG_OF_PERICENTER": 104.4987, "MEAN_ANOMALY": 287.5199, "EPHEMERIS_TYPE": 0, "CLASSIFICATION_TYPE": "U", "NORAD_CAT_ID": 34018, "ELEMENT_SET_NO": 999, "REV_AT_EPOCH": 84829, "BSTAR": 0.00034802, "MEAN_MOTION_DOT": 4.57e-06, "MEAN_MOTION_DDOT": 0}, "tle": {"line1": "1 34018U 93036HD  25359.18595795  .00000457  00000+0  34802-3 0  9995", "line2": "2 34018  73.8780  71.0047 0263120 104.4987 287.5199 13.81085316848295"}}, "geometry": {"type": "Point", "coordinates": [115.61363197956695, 67.79400194739172]}}, {"type": "Feature", "properties": {"norad_id": 34019, "name": "COSMOS 2251 DEB", "group": "cosmos-2251-debris", "lat": 68.39436193023857, "lon": 160.68835152246396, "alt_km": 780.3423298867392, "timestamp": "2025-12-25T11:37:44.832927+00:00", "meta": {"OBJECT_NAME": "COSMOS 2251 DEB", "OBJECT_ID": "1993-036HE", "EPOCH": "2025-12-25T03:01:55.229952", "MEAN_MOTION": 14.33989742, "ECCENTRICITY": 0.0062167, "INCLINATION": 73.9533, "RA_OF_ASC_NODE": 27.9594, "ARG_OF_PERICENTER": 207.2863, "MEAN_ANOMALY": 209.5479, "EPHEMERIS_TYPE": 0, "CLASSIFICATION_TYPE": "U", "NORAD_CAT_ID": 34019, "ELEMENT_SET_NO": 999, "REV_AT_EPOCH": 87698, "BSTAR": 0.00070877, "MEAN_MOTION_DOT": 1.995e-05, "MEAN_MOTION_DDOT": 0}, "tle": {"line1": "1 34019U 93036HE  25359.12633368  .00001995  00000+0  70877-3 0  9999", "line2": "2 34019  73.9533  27.9594 0062167 207.2863 209.5479 14.33989742876989"}}, "geometry": {"type": "Point", "coordinates": [160.68835152246396, 68.39436193023857]}}, {"type": "Feature", "properties": {"norad_id": 34021, "name": "COSMOS 2251 DEB", "group": "cosmos-2251-debris", "lat": -36.22570211201471, "lon": -61.995783010346436, "alt_km": 718.8283745772851, "timestamp": "2025-12-25T11:37:44.832938+00:00", "meta": {"OBJECT_NAME": "COSMOS 2251 DEB", "OBJECT_ID": "1993-036HG", "EPOCH": "2025-12-24T02:19:09.727104", "MEAN_MOTION": 14.4998687, "ECCENTRICITY": 0.00209726, "INCLINATION": 74.036, "RA_OF_ASC_NODE": 108.5044, "ARG_OF_PERICENTER": 251.5081, "MEAN_ANOMALY": 284.5816, "EPHEMERIS_TYPE": 0, "CLASSIFICATION_TYPE": "U", "NORAD_CAT_ID": 34021, "ELEMENT_SET_NO": 999, "REV_AT_EPOCH": 88794, "BSTAR": 0.00045043556, "MEAN_MOTION_DOT": 1.721e-05, "MEAN_MOTION_DDOT": 0}, "tle": {"line1": "1 34021U 93036HG  25358.09664036  .00001721  00000+0  45044-3 0  9998", "line2": "2 34021  74.0360 108.5044 0020972 251.5081 284.5816 14.49986870887942"}}, "geometry": {"type": "Point", "coordinates": [-61.995783010346436, -36.22570211201471]}}, {"type": "Feature", "properties": {"norad_id": 34022, "name": "COSMOS 2251 DEB", "group": "cosmos-2251-debris", "lat": -64.54464850601563, "lon": 104.22831024447206, "alt_km": 760.560874297963, "timestamp": "2025-12-25T11:37:44.832948+00:00", "meta": {"OBJECT_NAME": "COSMOS 2251 DEB", "OBJECT_ID": "1993-036HH", "EPOCH": "2025-12-25T02:43:25.517856", "MEAN_MOTION": 14.38980199, "ECCENTRICITY": 0.0023068, "INCLINATION": 74.0536, "RA_OF_ASC_NODE": 247.9957, "ARG_OF_PERICENTER": 311.0142, "MEAN_ANOMALY": 177.6525, "EPHEMERIS_TYPE": 0, "CLASSIFICATION_TYPE": "U", "NORAD_CAT_ID": 34022, "ELEMENT_SET_NO": 999, "REV_AT_EPOCH": 88373, "BSTAR": 0.00019707, "MEAN_MOTION_DOT": 5.83e-06, "MEAN_MOTION_DDOT": 0}, "tle": {"line1": "1 34022U 93036HH  25359.11348979  .00000583  00000+0  19707-3 0  9990", "line2": "2 34022  74.0536 247.9957 0023068 311.0142 177.6525 14.38980199883736"}}, "geometry": {"type": "Point", "coordinates": [104.22831024447206, -64.54464850601563]}}, {"type": "Feature", "properties": {"norad_id": 34023, "name": "COSMOS 2251 DEB", "group": "cosmos-2251-debris", "lat": -58.76276025137819, "lon": 76.34397494770053, "alt_km": 760.7885241128988, "timestamp": "2025-12-25T11:37:44.832958+00:00", "meta": {"OBJECT_NAME": "COSMOS 2251 DEB", "OBJECT_ID": "1993-036HJ", "EPOCH": "2025-12-25T02:44:20.664384", "MEAN_MOTION": 14.40584152, "ECCENTRICITY": 0.0018909, "INCLINATION": 74.0238, "RA_OF_ASC_NODE": 228.8427, "ARG_OF_PERICENTER": 322.7712, "MEAN_ANOMALY": 159.9305, "EPHEMERIS_TYPE": 0, "CLASSIFICATION_TYPE": "U", "NORAD_CAT_ID": 34023, "ELEMENT_SET_NO": 999, "REV_AT_EPOCH": 88392, "BSTAR": 0.0002603, "MEAN_MOTION_DOT": 8.05e-06, "MEAN_MOTION_DDOT": 0}, "tle": {"line1": "1 34023U 93036HJ  25359.11412806  .00000805  00000+0  26030-3 0  9996", "line2": "2 34023  74.0238 228.8427 0018909 322.7712 159.9305 14.40584152883928"}}, "geometry": {"type": "Point", "coordinates": [76.34397494770053, -58.76276025137819]}}, {"type": "Feature", "properties": {"norad_id": 34024, "name": "COSMOS 2251 DEB", "group": "cosmos-2251-debris", "lat": 14.786077031440605, "lon": -63.03596491774056, "alt_km": 761.5367689493514, "timestamp": "2025-12-25T11:37:44.832968+00:00", "meta": {"OBJECT_NAME": "COSMOS 2251 DEB", "OBJECT_ID": "1993-036HK", "EPOCH": "2025-12-25T00:13:37.229088", "MEAN_MOTION": 14.35409607, "ECCENTRICITY": 0.0021563, "INCLINATION": 74.047, "RA_OF_ASC_NODE": 293.5044, "ARG_OF_PERICENTER": 341.6386, "MEAN_ANOMALY": 99.704, "EPHEMERIS_TYPE": 0, "CLASSIFICATION_TYPE": "U", "NORAD_CAT_ID": 34024, "ELEMENT_SET_NO": 999, "REV_AT_EPOCH": 88200, "BSTAR": 0.0001986, "MEAN_MOTION_DOT": 5.46e-06, "MEAN_MOTION_DDOT": 0}, "tle": {"line1": "1 34024U 93036HK  25359.00945867  .00000546  00000+0  19860-3 0  9998", "line2": "2 34024  74.0470 293.5044 0021563 341.6386  99.7040 14.35409607882008"}}, "geometry": {"type": "Point", "coordinates": [-63.03596491774056, 14.786077031440605]}}, {"type": "Feature", "properties": {"norad_id": 34026, "name": "COSMOS 2251 DEB", "group": "cosmos-2251-debris", "lat": -61.80485081535415, "lon": -76.82621325938108, "alt_km": 1100.3722181531566, "timestamp": "2025-12-25T11:37:44.832979+00:00", "meta": {"OBJECT_NAME": "COSMOS 2251 DEB", "OBJECT_ID": "1993-036HM", "EPOCH": "2025-12-25T00:00:06.886944", "MEAN_MOTION": 13.65323017, "ECCENTRICITY": 0.0349583, "INCLINATION": 73.7668, "RA_OF_ASC_NODE": 316.8973, "ARG_OF_PERICENTER": 185.0257, "MEAN_ANOMALY": 244.2207, "EPHEMERIS_TYPE": 0, "CLASSIFICATION_TYPE": "U", "NORAD_CAT_ID": 34026, "ELEMENT_SET_NO": 999, "REV_AT_EPOCH": 83699, "BSTAR": 0.00042876, "MEAN_MOTION_DOT": 5.06e-06, "MEAN_MOTION_DDOT": 0}, "tle": {"line1": "1 34026U 93036HM  25359.00007971  .00000506  00000+0  42876-3 0  9994", "line2": "2 34026  73.7668 316.8973 0349583 185.0257 244.2207 13.65323017836998"}}, "geometry": {"type": "Point", "coordinates": [-76.82621325938108, -61.80485081535415]}}, {"type": "Feature", "properties": {"norad_id": 34028, "name": "COSMOS 2251 DEB", "group": "cosmos-2251-debris", "lat": 49.16229064284676, "lon": -12.747490103471241, "alt_km": 907.580028560692, "timestamp": "2025-12-25T11:37:44.832989+00:00", "meta": {"OBJECT_NAME": "COSMOS 2251 DEB", "OBJECT_ID": "1993-036HP", "EPOCH": "2025-12-25T00:47:28.404096", "MEAN_MOTION": 13.20633459, "ECCENTRICITY": 0.0543472, "INCLINATION": 73.8839, "RA_OF_ASC_NODE": 328.4031, "ARG_OF_PERICENTER": 104.1361, "MEAN_ANOMALY": 326.46, "EPHEMERIS_TYPE": 0, "CLASSIFICATION_TYPE": "U", "NORAD_CAT_ID": 34028, "ELEMENT_SET_NO": 999, "REV_AT_EPOCH": 81170, "BSTAR": 0.00048234, "MEAN_MOTION_DOT": 4.09e-06, "MEAN_MOTION_DDOT": 0}, "tle": {"line1": "1 34028U 93036HP  25359.03296764  .00000409  00000+0  48234-3 0  9995", "line2": "2 34028  73.8839 328.4031 0543472 104.1361 326.4600 13.20633459811703"}}, "geometry": {"type": "Point", "coordinates": [-12.747490103471241, 49.16229064284676]}}]}